ORBCOMM FM06            
1 25118U 97084G   26195.53144279  .00000488  00000+0  17033-3 0  9999
2 25118  45.0138 281.0706 0001457 229.7599 144.8337 14.47626387498351
ORBCOMM FM04            
1 25159U 98007C   26196.75129793  .00000350  00000+0  16547-3 0  9996
2 25159 107.9633 228.2108 0041971 275.9765  83.6593 14.35785126480692
ORBCOMM FM19            
1 25415U 98046C   26196.13414657  .00000415  00000+0  17731-3 0  9990
2 25415  44.9933 110.7126 0003238  62.2230  76.2921 14.39541374460806
ORBCOMM FM20            
1 25416U 98046D   26196.14813328  .00000311  00000+0  14817-3 0  9997
2 25416  44.9933 118.8780 0001392 359.4024   0.6823 14.38100222460818
ORBCOMM FM27            
1 25481U 98053G   26196.71802564  .00000294  00000+0  13985-3 0  9995
2 25481  45.0036 199.8360 0002384 293.0455  67.0142 14.39185302454347
ORBCOMM FM32            
1 25982U 99065C   26194.98412876  .00000273  00000+0  13828-3 0  9998
2 25982  45.0157  46.3955 0005565 186.3791 173.6987 14.37167121390947
ORBCOMM FM109           
1 40086U 14040A   26196.31488832  .00000100  00000+0  57384-4 0  9999
2 40086  47.0043 318.5000 0001490 322.3297  37.7484 14.58872584638458
ORBCOMM FM110           
1 41182U 15081D   26196.45665765  .00000139  00000+0  65683-4 0  9993
2 41182  47.0004 227.7733 0003603 223.2673 136.7931 14.58918046561751
ORBCOMM FM118           
1 41183U 15081E   26196.14866464  .00000044  00000+0  45624-4 0  9997
2 41183  47.0025 229.5677 0002884 186.1442 173.9409 14.58903820561817
ORBCOMM FM112           
1 41184U 15081F   26196.83749962  .00000272  00000+0  93622-4 0  9991
2 41184  46.9981 134.7620 0003664 330.8197  29.2484 14.58939167563130
ORBCOMM FM113           
1 41185U 15081G   26196.19875101  .00000111  00000+0  59625-4 0  9993
2 41185  46.9999 138.1739 0002230 321.4660  38.6066 14.58882058563022
ORBCOMM FM108           
1 41187U 15081J   26196.02377845  .00000268  00000+0  92802-4 0  9996
2 41187  47.0055  50.5822 0002658 321.5969  38.4727 14.58910524564142
ORBCOMM FM117           
1 41188U 15081K   26195.98951135  .00000245  00000+0  88052-4 0  9998
2 41188  47.0018  49.3713 0003074 328.6670  31.4032 14.58897499564188
ORBCOMM FM116           
1 41189U 15081L   26196.17510662  .00000083  00000+0  53674-4 0  9999
2 41189  47.0015 138.2828 0001538 229.7096 130.3655 14.58905811563027
